QIANFAN-97              
1 66039U 25233G   26016.17642731  .00000080  00000+0  10584-3 0  9993
2 66039  88.9911  58.5880 0003112 314.9217  45.1682 13.50955713 12660
QIANFAN-98              
1 66040U 25233H   26016.23473064  .00000104  00000+0  85999-4 0  9993
2 66040  88.9919  58.3776 0012803 296.4241  63.5613 13.81310094 12782
QIANFAN-99              
1 66041U 25233J   26016.11466110  .00000056  00000+0  67708-4 0  9999
2 66041  88.9926  58.5980 0010956 301.5361  58.4719 13.50954913 12654
QIANFAN-100             
1 66042U 25233K   26016.10643404  .00000035  00000+0  35584-4 0  9996
2 66042  88.9941  58.5095 0011127 302.4353  57.5722 13.50956949 12702
QIANFAN-101             
1 66043U 25233L   26016.24390226  .00000137  00000+0  50662-4 0  9990
2 66043  88.9926  58.0494 0012521 283.9456  76.0345 14.26694298 12965
QIANFAN-102             
1 66044U 25233M   26016.07446946  .00000085  00000+0  89326-4 0  9994
2 66044  88.9922  58.5327 0014673 298.7193  61.2492 13.65538400 12686
QIANFAN-103             
1 66045U 25233N   26016.27923326  .00000067  00000+0  85615-4 0  9996
2 66045  88.9927  58.5861 0012608 300.9375  59.0536 13.50990026 12672
QIANFAN-104             
1 66046U 25233P   26016.22881936  .00000097  00000+0  94175-4 0  9996
2 66046  88.9928  58.5090 0012446 304.3025  55.6959 13.71550510 12717
